[{"OBJECT_NAME":"FIREFLY-1","OBJECT_ID":"2025-009CW","EPOCH":"2026-03-09T21:21:29.738592","MEAN_MOTION":14.92823821,"ECCENTRICITY":0.00023582,"INCLINATION":97.7113,"RA_OF_ASC_NODE":149.053,"ARG_OF_PERICENTER":306.2718,"MEAN_ANOMALY":53.8283,"EPHEMERIS_TYPE":0,"CLASSIFICATION_TYPE":"U","NORAD_CAT_ID":62701,"ELEMENT_SET_NO":999,"REV_AT_EPOCH":6250,"BSTAR":0.00024367887,"MEAN_MOTION_DOT":2.466e-5,"MEAN_MOTION_DDOT":0},{"OBJECT_NAME":"AIST-1 (RS41)","OBJECT_ID":"2013-078C","EPOCH":"2026-03-09T23:05:53.785248","MEAN_MOTION":14.95763496,"ECCENTRICITY":0.00150774,"INCLINATION":82.4188,"RA_OF_ASC_NODE":6.9784,"ARG_OF_PERICENTER":249.0877,"MEAN_ANOMALY":110.8731,"EPHEMERIS_TYPE":0,"CLASSIFICATION_TYPE":"U","NORAD_CAT_ID":39492,"ELEMENT_SET_NO":999,"REV_AT_EPOCH":66041,"BSTAR":0.00019220788,"MEAN_MOTION_DOT":2.171e-5,"MEAN_MOTION_DDOT":0}]
